0 FENGYUN 1C DEB
1 30036U 99025NM  13281.65454892  .00000706  00000-0  20450-3 0  8485
2 30036 098.6779 281.9675 0221294 190.3163 235.7728 14.34452225352298
0 FENGYUN 1C DEB
1 30036U 99025NM  13282.70004874  .00000684  00000-0  19846-3 0  8496
2 30036 098.6778 283.0185 0221354 187.2247 234.7653 14.34456699352443
0 FENGYUN 1C DEB
1 30036U 99025NM  13283.74512853  .00000732  00000-0  21142-3 0  8500
2 30036 098.6776 284.0690 0221418 184.1365 231.5966 14.34458722352598
0 FENGYUN 1C DEB
1 30036U 99025NM  13286.74453359  .00000825  00000-0  23614-3 0  8529
2 30036 098.6774 287.0837 0221583 175.2842 240.6729 14.34461806353020
0 FENGYUN 1C DEB
1 30036U 99025NM  13287.99308907  .00001224  00000-0  34343-3 0  8531
2 30036 098.6774 288.3385 0221633 171.6008 208.2852 14.34465836353206
0 FENGYUN 1C DEB
1 30036U 99025NM  13289.26872149  .00000892  00000-0  25390-3 0  8540
2 30036 098.6775 289.6204 0221713 167.8366 315.7436 14.34469188353389
0 FENGYUN 1C DEB
1 30036U 99025NM  13290.31596403  .00000972  00000-0  27530-3 0  8552
2 30036 098.6777 290.6728 0221764 164.7485 323.7893 14.34470888353530
0 FENGYUN 1C DEB
1 30036U 99025NM  13291.50224082  .00000938  00000-0  26611-3 0  8567
2 30036 098.6778 291.8649 0221819 161.2492 329.8298 14.34472989353706
0 FENGYUN 1C DEB
1 30036U 99025NM  13292.67583374  .00001082  00000-0  30491-3 0  8571
2 30036 098.6779 293.0443 0221860 157.7871 270.3805 14.34474440353876
0 FENGYUN 1C DEB
1 30036U 99025NM  13293.72018561  .00001124  00000-0  31595-3 0  8583
2 30036 098.6781 294.0938 0221903 154.7098 263.5205 14.34476234354024
0 FENGYUN 1C DEB
1 30036U 99025NM  13294.97498473  .00001143  00000-0  32102-3 0  8592
2 30036 098.6782 295.3549 0221962 151.0212 263.4298 14.34478723354206
